IRIDIUM 106             
1 41917U 17003A   23332.47644518  .00000627  00000+0  21691-3 0  9991
2 41917  86.3951 117.9274 0002315  91.6944 268.4517 14.34224598359665
IRIDIUM 103             
1 41918U 17003B   23332.46377590  .00000755  00000+0  26261-3 0  9994
2 41918  86.3950 117.8350 0001971  90.8520 269.2902 14.34216162359684
IRIDIUM 109             
1 41919U 17003C   23332.47008853  .00000658  00000+0  22768-3 0  9999
2 41919  86.3952 117.8764 0001797  91.4215 268.7187 14.34228275359654
IRIDIUM 102             
1 41920U 17003D   23332.50815951  .00000647  00000+0  22383-3 0  9991
2 41920  86.3951 117.8044 0001929  93.2018 266.9399 14.34224923359745
IRIDIUM 105             
1 41921U 17003E   23332.40909341  .00000723  00000+0  25104-3 0  9997
2 41921  86.3966  86.2523 0002098  97.9241 262.2193 14.34221780361584
IRIDIUM 104             
1 41922U 17003F   23332.45107096  .00000617  00000+0  21304-3 0  9990
2 41922  86.3951 117.8565 0001935  98.4424 261.6991 14.34226583359722
IRIDIUM 114             
1 41923U 17003G   23332.45741750  .00000608  00000+0  20999-3 0  9991
2 41923  86.3951 117.8406 0002391  89.7211 270.4259 14.34224127359706
IRIDIUM 108             
1 41924U 17003H   23332.34617588  .00000675  00000+0  23410-3 0  9996
2 41924  86.3960  86.2171 0002376  91.4820 268.6648 14.34216558361549
